[
	{"nom" : "Il'Carpaccio", "zip" : "75008"},
	{"nom" : "Le Pressoir", "zip" : "56890"},
	{"nom" : "La Bonne Étape", "zip" : "04160"},
	{"nom" : "Bruno", "zip" : "83510"},
	{"nom" : "Le Quincangrogne", "zip" : "77400"},
	{"nom" : "Domaine des Séquoias", "zip" : "38300"},
	{"nom" : "l'Aparté", "zip" : "31850"},
	{"nom" : "Restaurant du Château", "zip" : "24650"},
	{"nom" : "Auberge du Vieux Puits", "zip" : "11360"},
	{"nom" : "Le St-Placide", "zip" : "35400"},
	{"nom" : "La Passagère", "zip" : "06160"},
	{"nom" : "La Table des Merville", "zip" : "31320"},
	{"nom" : "Pierre Orsi", "zip" : "69006"},
	{"nom" : "Le Vivarais", "zip" : "07600"},
	{"nom" : "Au Trou Gascon", "zip" : "75012"},
	{"nom" : "Le Hittau", "zip" : "40230"},
	{"nom" : "l'Odas", "zip" : "76000"},
	{"nom" : "La Table de Patrick Raingeard", "zip" : "06360"},
	{"nom" : "Le Refuge des Gourmets", "zip" : "74140"},
	{"nom" : "Le Magasin aux Vivres", "zip" : "57000"},
	{"nom" : "Le Coquillage", "zip" : "35350"},
	{"nom" : "Aux Pesked", "zip" : "22000"},
	{"nom" : "Relais de la Poste", "zip" : "40140"},
	{"nom" : "Le Bouche à Oreille", "zip" : "91150"},
	{"nom" : "Le Clarence", "zip" : "75008"},
	{"nom" : "Hostellerie de l'Abbaye de la Celle", "zip" : "83170"},
	{"nom" : "Maison Clovis", "zip" : "69006"},
	{"nom" : "Les Fresques", "zip" : "24240"},
	{"nom" : "Le Meurice Alain Ducasse", "zip" : "75001"},
	{"nom" : "Maison Kieny", "zip" : "68400"},
	{"nom" : "Carré des Feuillants", "zip" : "75001"},
	{"nom" : "Domaine d Auriac", "zip" : "11000"},
	{"nom" : "Michel'Chabran - La Grande Table", "zip" : "26600"},
	{"nom" : "Girardin", "zip" : "68000"},
	{"nom" : "Le Roc Alto", "zip" : "05350"},
	{"nom" : "Helen", "zip" : "75008"},
	{"nom" : "Alain Llorca", "zip" : "06480"},
	{"nom" : "Les Bacchanales", "zip" : "06140"},
	{"nom" : "Raphaël'Vionnet", "zip" : "74200"},
	{"nom" : "l'Oustau de Baumanière", "zip" : "13520"},
	{"nom" : "Assiette Champenoise", "zip" : "51430"},
	{"nom" : "J.-M. Pérochon", "zip" : "85470"},
	{"nom" : "Pic", "zip" : "26000"},
	{"nom" : "Le Pavillon des Boulevards", "zip" : "33000"},
	{"nom" : "La Marelle", "zip" : "01960"},
	{"nom" : "Aigue Marine", "zip" : "22220"},
	{"nom" : "Jérôme Brochot", "zip" : "71300"},
	{"nom" : "l'Essentiel", "zip" : "14800"},
	{"nom" : "G.a. au Manoir de Rétival", "zip" : "76490"},
	{"nom" : "Gill", "zip" : "76000"},
	{"nom" : "La Maison de Bournissac", "zip" : "13550"},
	{"nom" : "Têtedoie", "zip" : "69005"},
	{"nom" : "l'Auberge des Glazicks", "zip" : "29550"},
	{"nom" : "l'Atelier d Edmond", "zip" : "73150"},
	{"nom" : "Yoann Conte", "zip" : "74290"},
	{"nom" : "La Grand Vigne", "zip" : "33650"},
	{"nom" : "Mirazur", "zip" : "06500"},
	{"nom" : "Lasserre", "zip" : "75008"},
	{"nom" : "Dominique Bouchet", "zip" : "75008"},
	{"nom" : "Le Fanal", "zip" : "66650"},
	{"nom" : "Château de Pray", "zip" : "37400"},
	{"nom" : "La Barbacane", "zip" : "11000"},
	{"nom" : "La Rotonde", "zip" : "69890"},
	{"nom" : "Le Brittany", "zip" : "29681"},
	{"nom" : "Auberge du Cheval'Blanc", "zip" : "67510"},
	{"nom" : "Le Taillevent", "zip" : "75008"},
	{"nom" : "Auberge des Templiers", "zip" : "45290"},
	{"nom" : "Stéphane Derbord", "zip" : "21000"},
	{"nom" : "Relais de la Poste", "zip" : "67610"},
	{"nom" : "La Dame de Pic", "zip" : "75001"},
	{"nom" : "Ô Flaveurs", "zip" : "74140"},
	{"nom" : "La Coopérative", "zip" : "66720"},
	{"nom" : "Château Blanchard", "zip" : "42140"},
	{"nom" : "Pierre Reboul", "zip" : "13546"},
	{"nom" : "ES", "zip" : "75007"},
	{"nom" : "Château de Courban", "zip" : "21520"},
	{"nom" : "La Chaumière", "zip" : "39100"},
	{"nom" : "l'Auberge Basque", "zip" : "64310"},
	{"nom" : "En Marge", "zip" : "31320"},
	{"nom" : "Domaine des Hauts de Loire", "zip" : "41150"},
	{"nom" : "Le Prieuré", "zip" : "30400"},
	{"nom" : "l'Éveil'des Sens", "zip" : "53100"},
	{"nom" : "Jérôme Feck", "zip" : "51000"},
	{"nom" : "Pierre Gagnaire", "zip" : "75008"},
	{"nom" : "La Table by La Villa", "zip" : "20260"},
	{"nom" : "Ar Men Du", "zip" : "29920"},
	{"nom" : "Le Chiquito", "zip" : "95540"},
	{"nom" : "Faventia", "zip" : "83440"},
	{"nom" : "La Fourchette du Printemps", "zip" : "75017"},
	{"nom" : "Le Pré du Moulin", "zip" : "84830"},
	{"nom" : "Val'd Auge", "zip" : "59910"},
	{"nom" : "Lou Cigalon-Maison Martin", "zip" : "06560"},
	{"nom" : "Le Gabriel", "zip" : "75008"},
	{"nom" : "Pont de l'Ouysse", "zip" : "46200"},
	{"nom" : "Les Prés d Eugénie - Michel'Guérard", "zip" : "40320"},
	{"nom" : "La Ville Blanche", "zip" : "22300"},
	{"nom" : "l'Atelier du Peintre", "zip" : "68000"},
	{"nom" : "Le Bistrot de Lagarde", "zip" : "84400"},
	{"nom" : "St-James Paris", "zip" : "75116"},
	{"nom" : "Le Sérac", "zip" : "74170"},
	{"nom" : "La Robe", "zip" : "85600"},
	{"nom" : "Les Pyrénées", "zip" : "64220"},
	{"nom" : "Ima", "zip" : "35000"},
	{"nom" : "Villa Archange", "zip" : "06110"},
	{"nom" : "La Villa Madie", "zip" : "13260"},
	{"nom" : "Villa René Lalique", "zip" : "67290"},
	{"nom" : "Auberge de la Mine", "zip" : "61450"},
	{"nom" : "Christopher Coutanceau", "zip" : "17000"},
	{"nom" : "Terre-Mer", "zip" : "56400"},
	{"nom" : "Baumanière 1850", "zip" : "73120"},
	{"nom" : "Le George", "zip" : "75008"},
	{"nom" : "Montée", "zip" : "75014"},
	{"nom" : "Flocons de Sel", "zip" : "74120"},
	{"nom" : "Azimut", "zip" : "73120"},
	{"nom" : "Quinsou", "zip" : "75006"},
	{"nom" : "Maximin Hellio", "zip" : "14800"},
	{"nom" : "Kasbür", "zip" : "67700"},
	{"nom" : "La Gouesnière", "zip" : "35350"},
	{"nom" : "l'Atelier Yssoirien", "zip" : "63500"},
	{"nom" : "Racine", "zip" : "51100"},
	{"nom" : "U Santa Marina", "zip" : "20137"},
	{"nom" : "Frédéric Doucet", "zip" : "71120"},
	{"nom" : "La Table des Blot - Auberge du Château", "zip" : "78720"},
	{"nom" : "La Grange de Belle-Église", "zip" : "60540"},
	{"nom" : "La Renaissance", "zip" : "61200"},
	{"nom" : "Auberge Le Prieuré", "zip" : "47310"},
	{"nom" : "Le Marcq", "zip" : "59700"},
	{"nom" : "Le Skiff Club", "zip" : "33260"},
	{"nom" : "Jean Chauvel", "zip" : "92100"},
	{"nom" : "Ken Kawasaki", "zip" : "75018"},
	{"nom" : "Le Pêché Gourmand", "zip" : "05100"},
	{"nom" : "Takao Takano", "zip" : "69006"},
	{"nom" : "Les Trois Rochers", "zip" : "29120"},
	{"nom" : "Likoké", "zip" : "07140"},
	{"nom" : "La Promenade", "zip" : "37350"},
	{"nom" : "l'Orangerie", "zip" : "75008"},
	{"nom" : "Au Crocodile", "zip" : "67000"},
	{"nom" : "l'Alchémille", "zip" : "68240"},
	{"nom" : "Le Cercle", "zip" : "18000"},
	{"nom" : "Lamartine", "zip" : "73370"},
	{"nom" : "Les Rosiers", "zip" : "64200"},
	{"nom" : "La Bastide de Moustiers", "zip" : "04360"},
	{"nom" : "Garance", "zip" : "75007"},
	{"nom" : "Le Jasmin", "zip" : "47140"},
	{"nom" : "Épicure", "zip" : "75008"},
	{"nom" : "Michel'Sarran", "zip" : "31000"},
	{"nom" : "Chez Michèle", "zip" : "57810"},
	{"nom" : "Aux Terrasses", "zip" : "71700"},
	{"nom" : "Le 39V", "zip" : "75008"},
	{"nom" : "Meulien", "zip" : "71700"},
	{"nom" : "Arpège", "zip" : "75007"},
	{"nom" : "Restaurant H", "zip" : "75004"},
	{"nom" : "La Madeleine", "zip" : "89100"},
	{"nom" : "La Fourchette des Ducs", "zip" : "67210"},
	{"nom" : "Régis et Jacques Marcon", "zip" : "43290"},
	{"nom" : "l'Atelier de Joël'Robuchon - St-Germain", "zip" : "75007"},
	{"nom" : "La Marande", "zip" : "71260"},
	{"nom" : "114, Faubourg", "zip" : "75008"},
	{"nom" : "l'Atelier de Joël'Robuchon - Étoile", "zip" : "75008"},
	{"nom" : "Château de Mirambeau", "zip" : "17150"},
	{"nom" : "Étude", "zip" : "75016"},
	{"nom" : "La Cachette", "zip" : "26000"},
	{"nom" : "l'Atelier de Jean-Luc Rabanel", "zip" : "13200"},
	{"nom" : "Château de Codignat", "zip" : "63190"},
	{"nom" : "Maximilien", "zip" : "68340"},
	{"nom" : "Le Lido", "zip" : "20110"},
	{"nom" : "l'O des Vignes", "zip" : "71960"},
	{"nom" : "La Bonne Auberge", "zip" : "57350"},
	{"nom" : "Avel'Vor", "zip" : "56290"},
	{"nom" : "64° Le Restaurant", "zip" : "68240"},
	{"nom" : "La Table du Connétable", "zip" : "60500"},
	{"nom" : "La Table du 11", "zip" : "78000"},
	{"nom" : "Les Loges", "zip" : "69005"},
	{"nom" : "Agapé", "zip" : "75017"},
	{"nom" : "l'Aubergade", "zip" : "80480"},
	{"nom" : "l'Impertinent", "zip" : "64200"},
	{"nom" : "Palm Beach", "zip" : "20000"},
	{"nom" : "La Palmeraie", "zip" : "83420"},
	{"nom" : "Les Tablettes de Jean-Louis Nomicos", "zip" : "75116"},
	{"nom" : "La Côte Saint-Jacques", "zip" : "89300"},
	{"nom" : "l'Axel", "zip" : "77300"},
	{"nom" : "l'Auberge de la Pomme", "zip" : "27340"},
	{"nom" : "Le Champ des Lunes", "zip" : "84360"},
	{"nom" : "Greuze", "zip" : "71700"},
	{"nom" : "Le Moulin du Roc", "zip" : "24530"},
	{"nom" : "Auberge à la Bonne Idée", "zip" : "60350"},
	{"nom" : "La Nouvelle Auberge", "zip" : "68230"},
	{"nom" : "Vieux Pont", "zip" : "12390"},
	{"nom" : "Mon Plaisir", "zip" : "25190"},
	{"nom" : "Le Vivier", "zip" : "84800"},
	{"nom" : "Buerehiesel", "zip" : "67000"},
	{"nom" : "La Table de Manville", "zip" : "13520"},
	{"nom" : "Jérémy Galvan", "zip" : "69005"},
	{"nom" : "Hélène Darroze", "zip" : "75006"},
	{"nom" : "Miraflores", "zip" : "69006"},
	{"nom" : "Pertica", "zip" : "41100"},
	{"nom" : "Les Terraillers", "zip" : "06410"},
	{"nom" : "Auguste", "zip" : "75007"},
	{"nom" : "Pierre", "zip" : "71000"},
	{"nom" : "Les Chênes Verts", "zip" : "83690"},
	{"nom" : "Stéphane Carbone", "zip" : "14000"},
	{"nom" : "Py-r", "zip" : "31000"},
	{"nom" : "Le Puits du Trésor", "zip" : "11600"},
	{"nom" : "Origine", "zip" : "76000"},
	{"nom" : "Georges Blanc", "zip" : "01540"},
	{"nom" : "Atmosphères", "zip" : "73370"},
	{"nom" : "Le Kaïku", "zip" : "64500"},
	{"nom" : "l'Oasis", "zip" : "06210"},
	{"nom" : "Patrick Jeffroy", "zip" : "29660"},
	{"nom" : "l'Amphitryon", "zip" : "31770"},
	{"nom" : "Thierry Drapeau", "zip" : "85260"},
	{"nom" : "Table - Bruno Verjus", "zip" : "75012"},
	{"nom" : "Le Foch", "zip" : "51100"},
	{"nom" : "Le Mascaret", "zip" : "50560"},
	{"nom" : "Le Moulin d Alotz", "zip" : "64200"},
	{"nom" : "Maison Christian Étienne", "zip" : "84000"},
	{"nom" : "Hostellerie Les Gorges de Pennafort", "zip" : "83830"},
	{"nom" : "Le Jardin de Benjamin", "zip" : "83510"},
	{"nom" : "Hervé Busset", "zip" : "12320"},
	{"nom" : "Le Cloître", "zip" : "04300"},
	{"nom" : "Maison Jeunet", "zip" : "39600"},
	{"nom" : "Le Colombier", "zip" : "76550"},
	{"nom" : "Auberge de la Brie", "zip" : "77860"},
	{"nom" : "Le Grand Cap", "zip" : "11370"},
	{"nom" : "l'Aromate", "zip" : "06000"},
	{"nom" : "Le Chabichou", "zip" : "73120"},
	{"nom" : "Garopapilles", "zip" : "33000"},
	{"nom" : "Le Carré d Alethius", "zip" : "07800"},
	{"nom" : "Château de Sully", "zip" : "14400"},
	{"nom" : "Le Saison", "zip" : "35760"},
	{"nom" : "Étincelles - La Gentilhommière", "zip" : "24440"},
	{"nom" : "Entre Vigne et Garrigue", "zip" : "30131"},
	{"nom" : "Le Carrousel", "zip" : "63350"},
	{"nom" : "Au 14 Février", "zip" : "36100"},
	{"nom" : "Le Saint-Estève", "zip" : "13100"},
	{"nom" : "Ivan Vautier", "zip" : "14000"},
	{"nom" : "Auberge au Boeuf", "zip" : "67770"},
	{"nom" : "Gaya Rive Gauche par Pierre Gagnaire", "zip" : "75007"},
	{"nom" : "Antoine", "zip" : "75116"},
	{"nom" : "Le Pressoir d Argent - Gordon Ramsay", "zip" : "33000"},
	{"nom" : "Mickaël'Féval", "zip" : "13100"},
	{"nom" : "Apicius", "zip" : "75008"},
	{"nom" : "Aux Anges", "zip" : "42300"},
	{"nom" : "La Petite Maison de Cucuron", "zip" : "84160"},
	{"nom" : "Michel'Trama", "zip" : "47270"},
	{"nom" : "La Bastide St-Antoine", "zip" : "06130"},
	{"nom" : "Manoir de la Boulaie", "zip" : "44115"},
	{"nom" : "Christophe Bacquié", "zip" : "83330"},
	{"nom" : "Ithurria", "zip" : "64250"},
	{"nom" : "Table des Frères Ibarboure", "zip" : "64210"},
	{"nom" : "Les Trois Soleils de Montal", "zip" : "46400"},
	{"nom" : "La Table d Eugène", "zip" : "75018"},
	{"nom" : "Le Belvédère", "zip" : "12340"},
	{"nom" : "Skab", "zip" : "30000"},
	{"nom" : "Auberge St-Jean", "zip" : "33420"},
	{"nom" : "La Marine", "zip" : "85330"},
	{"nom" : "Auberge de la Charme", "zip" : "21370"},
	{"nom" : "Le Puits St-Jacques", "zip" : "32600"},
	{"nom" : "Dominique Bucaille", "zip" : "04100"},
	{"nom" : "Le Restaurant", "zip" : "75006"},
	{"nom" : "Maison Decoret", "zip" : "03200"},
	{"nom" : "Château d Adoménil", "zip" : "54300"},
	{"nom" : "Relais Louis XIII", "zip" : "75006"},
	{"nom" : "Le Lièvre Gourmand", "zip" : "45000"},
	{"nom" : "Le Chateaubriand", "zip" : "75011"},
	{"nom" : "Château de la Treyne", "zip" : "46200"},
	{"nom" : "JY'S", "zip" : "68000"},
	{"nom" : "Stéphane Tournié - Les Jardins de l'Opéra", "zip" : "31000"},
	{"nom" : "Fanny Rey & Jonathan Wahid", "zip" : "13210"},
	{"nom" : "l'Auberge de Bagatelle", "zip" : "72000"},
	{"nom" : "Au 14 Février", "zip" : "71570"},
	{"nom" : "Guy Lassausaie", "zip" : "69380"},
	{"nom" : "La Tour des Vents", "zip" : "24240"},
	{"nom" : "Radio", "zip" : "63400"},
	{"nom" : "Le Manoir du Lys", "zip" : "61140"},
	{"nom" : "Hostellerie de Plaisance", "zip" : "33330"},
	{"nom" : "Brikéténia", "zip" : "64210"},
	{"nom" : "Le Raisin", "zip" : "01190"},
	{"nom" : "Le Domaine du Colombier", "zip" : "26780"},
	{"nom" : "La Scène", "zip" : "75008"},
	{"nom" : "SaQuaNa", "zip" : "14600"},
	{"nom" : "Alcyone", "zip" : "13002"},
	{"nom" : "Toya", "zip" : "57380"},
	{"nom" : "Les Jardins de l'Espadon", "zip" : "75001"},
	{"nom" : "Restaurant de Lauzun", "zip" : "34150"},
	{"nom" : "l'Arnsbourg", "zip" : "57230"},
	{"nom" : "À Contre Sens", "zip" : "14000"},
	{"nom" : "Maison Prévôt", "zip" : "84300"},
	{"nom" : "La Grenouillère", "zip" : "62170"},
	{"nom" : "l'Épuisette", "zip" : "13007"},
	{"nom" : "Côté Jardin", "zip" : "45500"},
	{"nom" : "La Maison d à Côté", "zip" : "41350"},
	{"nom" : "Serge Vieira", "zip" : "15110"},
	{"nom" : "Le M", "zip" : "29200"},
	{"nom" : "Le Park 45", "zip" : "06400"},
	{"nom" : "Auberge de l'Abbaye", "zip" : "01500"},
	{"nom" : "Clovis", "zip" : "06140"},
	{"nom" : "l'Aquarelle", "zip" : "17920"},
	{"nom" : "La Table de Nans", "zip" : "13600"},
	{"nom" : "Les Bas-Rupts", "zip" : "88400"},
	{"nom" : "Auberge Tiegezh", "zip" : "56380"},
	{"nom" : "Le Pré - Xavier Beaudiment", "zip" : "63830"},
	{"nom" : "Au 14 Février", "zip" : ""},
	{"nom" : "Cobéa", "zip" : "75014"},
	{"nom" : "Hexagone", "zip" : "75016"},
	{"nom" : "Hostellerie de Levernois", "zip" : "21200"},
	{"nom" : "Qui plume la Lune", "zip" : "75011"},
	{"nom" : "Restaurant du Palais Royal", "zip" : "75001"},
	{"nom" : "Le Grand Restaurant - Jean-François Piège", "zip" : "75008"},
	{"nom" : "Loiseau des Vignes", "zip" : "21200"},
	{"nom" : "Le Kintessence", "zip" : "73120"},
	{"nom" : "Saturne", "zip" : "75002"},
	{"nom" : "l'Atelier de Gaztelur", "zip" : "64200"},
	{"nom" : "Le Musigny", "zip" : "59300"},
	{"nom" : "Xavier Mathieu", "zip" : "84220"},
	{"nom" : "Le Kléber", "zip" : "26400"},
	{"nom" : "l'Essentiel", "zip" : "24000"},
	{"nom" : "Le Jardin des Remparts", "zip" : "21200"},
	{"nom" : "Les Ducs de Lorraine", "zip" : "88000"},
	{"nom" : "Le Camélia", "zip" : "78380"},
	{"nom" : "Le France", "zip" : "25130"},
	{"nom" : "Le Prieuré", "zip" : "42820"},
	{"nom" : "Jérôme Nutile - Le Mas de Boudan", "zip" : "30000"},
	{"nom" : "Gavroche", "zip" : "67000"},
	{"nom" : "Château du Mont Joly", "zip" : "39100"},
	{"nom" : "l'Almandin", "zip" : "66750"},
	{"nom" : "l'Abeille", "zip" : "75016"},
	{"nom" : "Le Domaine de la Corniche", "zip" : "78270"},
	{"nom" : "Emporio Armani Ristorante", "zip" : "75006"},
	{"nom" : "1217", "zip" : "69620"},
	{"nom" : "Rodolphe", "zip" : "76000"},
	{"nom" : "Frédéric Simonin", "zip" : "75017"},
	{"nom" : "La Grande Maison de Bernard Magrez", "zip" : "33000"},
	{"nom" : "Auberge du Pont d Acigné", "zip" : "35530"},
	{"nom" : "La Merise", "zip" : "67580"},
	{"nom" : "Les Clefs d Argent", "zip" : "40000"},
	{"nom" : "William Frachot", "zip" : "21000"},
	{"nom" : "JAN", "zip" : "06000"},
	{"nom" : "Le Clocher des Pères", "zip" : "73130"},
	{"nom" : "Le Pavillon", "zip" : "62520"},
	{"nom" : "Nakatani", "zip" : "75007"},
	{"nom" : "Château Cordeillan-Bages", "zip" : "33250"},
	{"nom" : "l'Esquisse", "zip" : "74000"},
	{"nom" : "Pèir", "zip" : "84220"},
	{"nom" : "Le P'tit Polyte", "zip" : "38860"},
	{"nom" : "En Pleine Nature", "zip" : "31130"},
	{"nom" : "Les Terrasses d Uriage", "zip" : "38410"},
	{"nom" : "Grand Hôtel'du Lion d Or", "zip" : "41200"},
	{"nom" : "La Table de Chaintré", "zip" : "71570"},
	{"nom" : "Anne de Bretagne", "zip" : "44770"},
	{"nom" : "Neige d Été", "zip" : "75015"},
	{"nom" : "Chapelle Saint-Martin", "zip" : "87510"},
	{"nom" : "Château de Vauchoux", "zip" : "70170"},
	{"nom" : "La Matelote", "zip" : "62200"},
	{"nom" : "Auberge Frankenbourg", "zip" : "67730"},
	{"nom" : "Alain Ducasse au Plaza Athénée", "zip" : "75008"},
	{"nom" : "Auberge du Dun", "zip" : "76740"},
	{"nom" : "Jean-Claude Leclerc", "zip" : "63000"},
	{"nom" : "David Toutain", "zip" : "75007"},
	{"nom" : "Paloma", "zip" : "06250"},
	{"nom" : "Les Cèdres", "zip" : "26600"},
	{"nom" : "Apicius", "zip" : "63000"},
	{"nom" : "Hostellerie Bérard", "zip" : "83740"},
	{"nom" : "Auberge du Cellier", "zip" : "66720"},
	{"nom" : "Maison Crouzil'et Hôtel'l'Écrin", "zip" : "22130"},
	{"nom" : "Maison Rostang", "zip" : "75017"},
	{"nom" : "Le 7ème Continent", "zip" : "68170"},
	{"nom" : "Le Cerf", "zip" : "67520"},
	{"nom" : "1920", "zip" : "74120"},
	{"nom" : "Quai des Saveurs", "zip" : "57300"},
	{"nom" : "La Maison des Bois - Marc Veyrat", "zip" : "74230"},
	{"nom" : "Penati al'Baretto", "zip" : "75008"},
	{"nom" : "La Bastide de Capelongue", "zip" : "84480"},
	{"nom" : "Le Corot", "zip" : "92410"},
	{"nom" : "Château de Mercuès", "zip" : "46090"},
	{"nom" : "La Table de l'Alpaga", "zip" : "74120"},
	{"nom" : "Les Hautes Roches", "zip" : "37210"},
	{"nom" : "Les Terrasses de Lyon", "zip" : "69005"},
	{"nom" : "l'Océan", "zip" : "64500"},
	{"nom" : "Auberge de l'Ill", "zip" : "68970"},
	{"nom" : "Le Gambetta", "zip" : "49400"},
	{"nom" : "La Galinette", "zip" : "66000"},
	{"nom" : "Le Carmin", "zip" : "21200"},
	{"nom" : "Restaurant des Rois", "zip" : "06310"},
	{"nom" : "Le Bénaton", "zip" : "21200"},
	{"nom" : "Pertinence", "zip" : "75007"},
	{"nom" : "Il'Cortile", "zip" : "68100"},
	{"nom" : "Le Parc Les Crayères", "zip" : "51100"},
	{"nom" : "Le Castellaras", "zip" : "83440"},
	{"nom" : "Dyades au Domaine des Étangs", "zip" : "16310"},
	{"nom" : "Le Grand Bleu", "zip" : "24200"},
	{"nom" : "René et Maxime Meilleur", "zip" : "73440"},
	{"nom" : "Le Sénéchal", "zip" : "12800"},
	{"nom" : "La Table Saint-Crescent", "zip" : "11100"},
	{"nom" : "Le Pergolèse", "zip" : "75016"},
	{"nom" : "Maison Lameloise", "zip" : "71150"},
	{"nom" : "La Table d Uzès", "zip" : "30700"},
	{"nom" : "Le Montgomerie", "zip" : "73120"},
	{"nom" : "Pages", "zip" : "75016"},
	{"nom" : "Loiseau rive Gauche", "zip" : "75007"},
	{"nom" : "SEPT", "zip" : "31000"},
	{"nom" : "Numéro 3", "zip" : "78490"},
	{"nom" : "Le Patio", "zip" : "33120"},
	{"nom" : "La Ferme de l'Hospital", "zip" : "74160"},
	{"nom" : "MaSa", "zip" : "92100"},
	{"nom" : "l'Hysope", "zip" : "17220"},
	{"nom" : "Le Pily", "zip" : "50100"},
	{"nom" : "Ô Saveurs", "zip" : "31180"},
	{"nom" : "La Grignotière", "zip" : "59590"},
	{"nom" : "Alexandre", "zip" : "30128"},
	{"nom" : "Le Quinzième - Cyril'Lignac", "zip" : "75015"},
	{"nom" : "Le Grand Véfour", "zip" : "75001"},
	{"nom" : "Le Saint-Martin", "zip" : "06140"},
	{"nom" : "Au Souper Fin", "zip" : "76690"},
	{"nom" : "Le Gindreau", "zip" : "46150"},
	{"nom" : "AM par Alexandre Mazzia", "zip" : "13008"},
	{"nom" : "Yam'Tcha", "zip" : "75001"},
	{"nom" : "Les Climats", "zip" : "75007"},
	{"nom" : "Les Genêts", "zip" : "85470"},
	{"nom" : "Auberge du Vert Mont", "zip" : "59299"},
	{"nom" : "Le St-Martin", "zip" : "25200"},
	{"nom" : "Auberge La Fenière", "zip" : "84160"},
	{"nom" : "Le Cinq", "zip" : "75008"},
	{"nom" : "Jean-Luc Tartarin", "zip" : "76600"},
	{"nom" : "Le Bistro des Saveurs", "zip" : "67210"},
	{"nom" : "Auberge de l'Île Barbe", "zip" : "69009"},
	{"nom" : "Fontevraud Le Restaurant", "zip" : "49590"},
	{"nom" : "Le Cap", "zip" : "06230"},
	{"nom" : "Cyril'Attrazic", "zip" : "48130"},
	{"nom" : "La Gloire", "zip" : "45200"},
	{"nom" : "La Vague d Or", "zip" : "83990"},
	{"nom" : "Comice", "zip" : "75016"},
	{"nom" : "La Tour", "zip" : "18300"},
	{"nom" : "Le Haut-Allier", "zip" : "43580"},
	{"nom" : "Le Farçon", "zip" : "73125"},
	{"nom" : "Les Bories", "zip" : "84220"},
	{"nom" : "La Palme d Or", "zip" : "06400"},
	{"nom" : "La Balette", "zip" : "66190"},
	{"nom" : "Auberge La Pomme d Api", "zip" : "29250"},
	{"nom" : "Le Bois sans Feuilles", "zip" : "42155"},
	{"nom" : "La Chassagnette", "zip" : "13200"},
	{"nom" : "l'Olivier", "zip" : "83990"},
	{"nom" : "Sushi B", "zip" : "75002"},
	{"nom" : "Le Pavé d Auge", "zip" : "14430"},
	{"nom" : "Le Relais des Moines", "zip" : "83460"},
	{"nom" : "Ze Kitchen Galerie", "zip" : "75006"},
	{"nom" : "Hostellerie du Rosenmeer", "zip" : "67560"},
	{"nom" : "La Closerie", "zip" : "84240"},
	{"nom" : "Auberge de Clochemerle", "zip" : "69460"},
	{"nom" : "Les Morainières", "zip" : "73170"},
	{"nom" : "Le Beaulieu", "zip" : "72000"},
	{"nom" : "Auberge du Bon Laboureur", "zip" : "37150"},
	{"nom" : "Copenhague", "zip" : "75008"},
	{"nom" : "Benoit", "zip" : "75004"},
	{"nom" : "Le Moulin de la Gorce", "zip" : "87800"},
	{"nom" : "I Salti", "zip" : "20226"},
	{"nom" : "Alan Geaam", "zip" : "75016"},
	{"nom" : "La Bergerie", "zip" : "63490"},
	{"nom" : "Allium", "zip" : "29000"},
	{"nom" : "Le Prince Noir - Vivien Durand", "zip" : "33310"},
	{"nom" : "Le Baudelaire", "zip" : "75001"},
	{"nom" : "La Promenade", "zip" : "31590"},
	{"nom" : "Le Pot d Étain", "zip" : "90400"},
	{"nom" : "Le Grand Cerf", "zip" : "51500"},
	{"nom" : "Auberge St-Laurent", "zip" : "68510"},
	{"nom" : "Alléno Paris au Pavillon Ledoyen", "zip" : "75008"},
	{"nom" : "La Liégeoise", "zip" : "62930"},
	{"nom" : "La Gourmandière - La Table d Olivier", "zip" : "56000"},
	{"nom" : "Dan B. - La Table de Ventabren", "zip" : "13122"},
	{"nom" : "Haut Bonheur de la Table", "zip" : "59670"},
	{"nom" : "La Vieille Tour", "zip" : "22190"},
	{"nom" : "Le Clair de la Plume", "zip" : "26230"},
	{"nom" : "l'Amaryllis", "zip" : "71100"},
	{"nom" : "La Marine", "zip" : "50270"},
	{"nom" : "Le Cerisier", "zip" : "62840"},
	{"nom" : "Mathieu Pacaud - Histoires", "zip" : "75016"},
	{"nom" : "Sylvestre", "zip" : "75007"},
	{"nom" : "Le Petit Nice", "zip" : "13007"},
	{"nom" : "Gordon Ramsay au Trianon", "zip" : "78000"},
	{"nom" : "Logis de la Cadène", "zip" : "33330"},
	{"nom" : "Les Explorateurs", "zip" : "73440"},
	{"nom" : "La Table de l'Espadon", "zip" : "75001"},
	{"nom" : "l'Archeste", "zip" : "75116"},
	{"nom" : "Transparence La Table de Patrick Fréchin", "zip" : "54000"},
	{"nom" : "La Chèvre d Or", "zip" : "06360"},
	{"nom" : "l'Orangerie du Château", "zip" : "41000"},
	{"nom" : "Auberge des Saints Pères", "zip" : "93600"},
	{"nom" : "l'Arôme", "zip" : "75008"},
	{"nom" : "Kei", "zip" : "75001"},
	{"nom" : "Le Vieux Logis", "zip" : "24510"},
	{"nom" : "Divellec", "zip" : "75007"},
	{"nom" : "Les Berceaux", "zip" : "51200"},
	{"nom" : "Le Strasbourg", "zip" : "57230"},
	{"nom" : "Alliance", "zip" : "75005"},
	{"nom" : "l'Amphitryon", "zip" : "56100"},
	{"nom" : "Le Chiberta", "zip" : "75008"},
	{"nom" : "Septime", "zip" : "75011"},
	{"nom" : "La Rastègue", "zip" : "83230"},
	{"nom" : "Les Pêcheurs", "zip" : "06600"},
	{"nom" : "Domaine de Clairefontaine", "zip" : "38121"},
	{"nom" : "La Lorraine", "zip" : "57330"},
	{"nom" : "Julien Binz", "zip" : "68770"},
	{"nom" : "Sur Mesure par Thierry Marx", "zip" : "75001"},
	{"nom" : "Le Bec au Cauchois", "zip" : "76540"},
	{"nom" : "La Licorne Royale", "zip" : "27480"},
	{"nom" : "Le Candille", "zip" : "06250"},
	{"nom" : "Flaveur", "zip" : "06000"},
	{"nom" : "Le Moulin des Quatre Saisons", "zip" : "72200"},
	{"nom" : "Hostellerie Jérôme", "zip" : "06320"},
	{"nom" : "Aida", "zip" : "75007"},
	{"nom" : "La Voile", "zip" : "83350"},
	{"nom" : "l'Orée de la Forêt", "zip" : "60600"},
	{"nom" : "Le Bon Accueil", "zip" : "25160"},
	{"nom" : "Le Village", "zip" : "78160"},
	{"nom" : "La Table du Gourmet", "zip" : "68340"},
	{"nom" : "Louison", "zip" : "13610"},
	{"nom" : "Auberge Grand Maison", "zip" : "22530"},
	{"nom" : "1741", "zip" : "67000"},
	{"nom" : "La Maison dans le Parc", "zip" : "54000"},
	{"nom" : "Shang Palace", "zip" : "75016"},
	{"nom" : "Au Vieux Couvent", "zip" : "67860"},
	{"nom" : "La Table de La Butte", "zip" : "29260"},
	{"nom" : "Le Moulin de l'Abbaye", "zip" : "24310"},
	{"nom" : "1131", "zip" : "21360"},
	{"nom" : "Le Millénaire", "zip" : "51100"},
	{"nom" : "Flaveurs", "zip" : "26000"},
	{"nom" : "La Réserve Rimbaud", "zip" : "34000"},
	{"nom" : "Jin", "zip" : "75001"},
	{"nom" : "Le Clos des Sens", "zip" : "74940"},
	{"nom" : "Le Jardin des Plumes", "zip" : "27620"},
	{"nom" : "Les Trois Dômes", "zip" : "69002"},
	{"nom" : "La Pyramide-Patrick Henriroux", "zip" : "38200"},
	{"nom" : "Les Voiles d Or", "zip" : "76200"},
	{"nom" : "La Ribaudière", "zip" : "16200"},
	{"nom" : "La Scène Thélème", "zip" : "75017"},
	{"nom" : "Une Table au Sud", "zip" : "13002"},
	{"nom" : "Le Pousse-Pied", "zip" : "85360"},
	{"nom" : "Assa", "zip" : "41000"},
	{"nom" : "La Grande Cascade", "zip" : "75016"},
	{"nom" : "La Coquerie", "zip" : "34200"},
	{"nom" : "Le Saint-James", "zip" : "33270"},
	{"nom" : "Le Jules Verne", "zip" : "75007"},
	{"nom" : "Roscanvec", "zip" : "56000"},
	{"nom" : "Tour d Argent", "zip" : "75005"},
	{"nom" : "La Table Breizh Café", "zip" : "35260"},
	{"nom" : "Le Gourmet de Sèze", "zip" : "69006"},
	{"nom" : "Le Petit Hôtel'du Grand Large", "zip" : "56510"},
	{"nom" : "Le Chantecler", "zip" : "06000"},
	{"nom" : "Mariottat", "zip" : "47000"},
	{"nom" : "Lucas Carton", "zip" : "75008"},
	{"nom" : "Le Belrose", "zip" : "83580"},
	{"nom" : "Umami", "zip" : "67000"},
	{"nom" : "Domaine de Rochevilaine", "zip" : "56190"},
	{"nom" : "La Table des Cordeliers", "zip" : "32100"},
	{"nom" : "l'Ambroisie", "zip" : "75004"},
	{"nom" : "Les Fresques", "zip" : "74500"},
	{"nom" : "Elsa", "zip" : "06190"},
	{"nom" : "La Table de Franck Putelat", "zip" : "11000"},
	{"nom" : "Hostellerie la Montagne", "zip" : "52330"},
	{"nom" : "La Table", "zip" : "59000"},
	{"nom" : "Auberge de la Diligence", "zip" : "49440"},
	{"nom" : "La Table d Olivier", "zip" : "19100"},
	{"nom" : "Mère Brazier", "zip" : "69001"},
	{"nom" : "Le Figuier de St-Esprit", "zip" : "06600"},
	{"nom" : "Henri et Joseph", "zip" : "56100"},
	{"nom" : "Les Tables de Gaspard", "zip" : "05600"},
	{"nom" : "La Mare aux Oiseaux", "zip" : "44720"},
	{"nom" : "Au Déjeuner de Sousceyrac", "zip" : "46190"},
	{"nom" : "Le Château de Sable", "zip" : "29840"},
	{"nom" : "Paul'Bocuse", "zip" : "69660"},
	{"nom" : "Prairial", "zip" : "69001"},
	{"nom" : "Albert 1er", "zip" : "74400"},
	{"nom" : "Pur' - Jean-François Rouquette", "zip" : "75002"},
	{"nom" : "Loiseau des Ducs", "zip" : "21000"},
	{"nom" : "l'Étang du Moulin", "zip" : "25210"},
	{"nom" : "Une Île", "zip" : "49000"},
	{"nom" : "Meurin", "zip" : "62350"},
	{"nom" : "l'Escarbille", "zip" : "92190"},
	{"nom" : "La Roya", "zip" : "20217"},
	{"nom" : "Passage 53", "zip" : "75002"},
	{"nom" : "1912", "zip" : "14360"},
	{"nom" : "Astrance", "zip" : "75016"},
	{"nom" : "Ed.Em", "zip" : "21190"},
	{"nom" : "Le Passe Temps", "zip" : "69006"},
	{"nom" : "l'Émulsion", "zip" : "38080"},
	{"nom" : "Mavrommatis", "zip" : "75005"},
	{"nom" : "Le Pré Catelan", "zip" : "75016"},
	{"nom" : "Le 1947", "zip" : "73120"},
	{"nom" : "Intuition", "zip" : "50000"},
	{"nom" : "Laurent", "zip" : "75008"},
	{"nom" : "Le Neuvième Art", "zip" : "69006"},
	{"nom" : "l'Ekrin by Laurent Azoulay", "zip" : "73550"},
	{"nom" : "l'Atlantide 1874 - Maison Guého", "zip" : "44100"},
	{"nom" : "Auberge de la Tour", "zip" : "15220"},
	{"nom" : "Palégrié", "zip" : "38250"},
	{"nom" : "Akrame", "zip" : "75008"},
	{"nom" : "Le Favre d Anne", "zip" : "49000"},
	{"nom" : "Cayola", "zip" : "85180"},
	{"nom" : "Auberge St-Walfrid", "zip" : "57200"},
	{"nom" : "Casadelmar", "zip" : "20137"},
	{"nom" : "Le Mas du Langoustier", "zip" : "83400"},
	{"nom" : "l'Écrin", "zip" : "75008"},
	{"nom" : "Rackham", "zip" : "29680"},
	{"nom" : "Auberge du Paradis", "zip" : "71570"},
	{"nom" : "Initial", "zip" : "14000"},
	{"nom" : "Le Clos St-Pierre", "zip" : "06650"},
	{"nom" : "Le Violon d Ingres", "zip" : "75007"},
	{"nom" : "Le Relais Bernard Loiseau", "zip" : "21210"},
	{"nom" : "Guy Savoy", "zip" : "75006"},
	{"nom" : "La Table de la Bergerie", "zip" : "49380"},
	{"nom" : "l'Arcane", "zip" : "75018"},
	{"nom" : "Le Georges", "zip" : "28000"}
]