[{ "id": 9611, "name": "Le Radio", "address": {"address_locality":"Chamalières","postal_code":"63400","street_address":"43, av Pierre et Marie Curie"}},
{ "id": 275, "name": "Restaurant le Meurice Alain Ducasse", "address": {"address_locality":"Paris","postal_code":"75001","street_address":"228, rue de Rivoli"}},
{ "id": 26352, "name": "Le Moulin de l'Abbaye", "address": {"address_locality":"Brantôme","postal_code":"24310","street_address":"1 route de Bourdeilles"}},
{ "id": 2819, "name": "Les Hautes Roches", "address": {"address_locality":"Rochecorbon","postal_code":"37210","street_address":"86, quai de la Loire"}},
{ "id": 299255, "name": "Aux Aromates", "address": {"address_locality":"Martigues","postal_code":"13500","street_address":"8 Cours du 4 Septembre"}},
{ "id": 60418, "name": "Apicius", "address": {"address_locality":"Paris","postal_code":"75008","street_address":"20 Rue d'Artois, Paris, France"}},
{ "id": 26112, "name": "Le 39V Paris - Frédéric Vardon", "address": {"address_locality":"Paris","postal_code":"75008","street_address":"39 Avenue George V"}},
{ "id": 57531, "name": "La Bastide de Moustiers", "address": {"address_locality":"Moustiers-Sainte-Marie","postal_code":"04360","street_address":"Chemin de Quinson"}},
{ "id": 2934, "name": "Auberge du Bon Laboureur", "address": {"address_locality":"Chenonceaux","postal_code":"37150","street_address":"6 Rue Bretonneau"}},
{ "id": 8760, "name": "Saturne", "address": {"address_locality":"Paris","postal_code":"75002","street_address":"17, rue Notre-Dame des Victoires"}},
{ "id": 23303, "name": "La Table de Nans - Auberge le Revestel", "address": {"address_locality":"La Ciotat","postal_code":"13600","street_address":"126, corniche du Liouquet"}},
{ "id": 2740, "name": "Le Manoir du Lys", "address": {"address_locality":"Orne","postal_code":"61140","street_address":"Route de Juvigny"}},
{ "id": 11295, "name": "Qui Plume la Lune - Jacky Ribault", "address": {"address_locality":"Paris","postal_code":"75011","street_address":"50, rue Amelot"}},
{ "id": 275457, "name": "Emporio Armani Ristorante", "address": {"address_locality":"Paris","postal_code":"75006","street_address":"149 Boulevard Saint-Germain"}},
{ "id": 32584, "name": "L'Auberge de la Pomme", "address": {"address_locality":"Les Damps","postal_code":"27340","street_address":"44, route de l'Eure"}},
{ "id": 33786, "name": "Le 1947 - Cheval Blanc Courchevel", "address": {"address_locality":"La Perrière","postal_code":"73120","street_address":"Hôtel Cheval Blanc, Le Jardin Alpin, 73120 Courchevel"}},
{ "id": 21741, "name": "Restaurant du Palais Royal", "address": {"address_locality":"Paris","postal_code":"75001","street_address":"110 Galerie de Valois"}},
{ "id": 378, "name": "Ithurria", "address": {"address_locality":"Ainhoa","postal_code":"64250","street_address":"Place du Fronton"}},
{ "id": 300149, "name": "Miraflores Golf", "address": {"address_locality":"Mijas","postal_code":"29649","street_address":"Calle Severiano Ballesteros"}},
{ "id": 5603, "name": "JY'S", "address": {"address_locality":"Colmar","postal_code":"68000","street_address":"17, rue de la Poissonnerie"}},
{ "id": 15418, "name": "Les Loges - Anthony Bonnet", "address": {"address_locality":"Lyon","postal_code":"69005","street_address":"6, rue du Bœuf"}},
{ "id": 10238, "name": "Les Rois de France", "address": {"address_locality":"Contres","postal_code":"41700","street_address":"37 6-39, rue Pierre-Henri Mauger"}},
{ "id": 9976, "name": "Le Violon d'Ingres - Eric MEYER", "address": {"address_locality":"Strasbourg","postal_code":"67000","street_address":"1, rue du Chevalier Robert"}},
{ "id": 8838, "name": "Henri et Joseph", "address": {"address_locality":"Lorient","postal_code":"56100","street_address":"4, rue Leo Le Bourgo"}},
{ "id": 15848, "name": "La Closerie de Kerdrain", "address": {"address_locality":"Auray","postal_code":"56400","street_address":"20, rue Louis Billet \t\t\t\r\n"}},
{ "id": 7133, "name": "Le Moulin du Roc", "address": {"address_locality":"Champagnac-de-Belair","postal_code":"24530","street_address":"Proximite Route D939"}},
{ "id": 29826, "name": "Loiseau des Ducs", "address": {"address_locality":"Dijon","postal_code":"21000","street_address":"3, rue Vauban"}},
{ "id": 18271, "name": "Le Clair de la Plume", "address": {"address_locality":"Grignan","postal_code":"26230","street_address":"2, place du Mail"}},
{ "id": 200546, "name": "Sylvestre - Hôtel Thoumieux", "address": {"address_locality":"Paris","postal_code":"75007","street_address":"79 Rue Saint-Dominique"}},
{ "id": 71542, "name": "Au Crocodile", "address": {"address_locality":"Strasbourg","postal_code":"67000","street_address":"10 Rue de l'Outre"}},
{ "id": 25985, "name": "Copenhague", "address": {"address_locality":"Paris","postal_code":"75008","street_address":"142, Avenue des Champs ELysées"}},
{ "id": 566, "name": "L'Almandin", "address": {"address_locality":"Saint-Cyprien","postal_code":"66750","street_address":"Boulevard de l'Almandin"}},
{ "id": 25901, "name": "Hostellerie de l'Abbaye de la Celle", "address": {"address_locality":"La Celle","postal_code":"83170","street_address":"10, place du Général de Gaulle"}},
{ "id": 132, "name": "Le Relais des Moines", "address": {"address_locality":"Les Arcs","postal_code":"83460","street_address":"Route de Sainte Roseline"}},
{ "id": 122, "name": "La Grande Cascade - Frédéric Robert", "address": {"address_locality":"Paris","postal_code":"75016","street_address":"Bois de Boulogne, allée de Longchamp"}},
{ "id": 25701, "name": "Garance", "address": {"address_locality":"Paris","postal_code":"75007","street_address":"34, rue Saint-Dominique"}},
{ "id": 26746, "name": "La Pergola - Le Mas Candille", "address": {"address_locality":"Mougins","postal_code":"06250","street_address":"Boulevard Clément Rebuffel"}},
{ "id": 15068, "name": "Au Vieux Couvent - Alexis Albrecht", "address": {"address_locality":"Rhinau","postal_code":"67860","street_address":"6, rue des Chanoines"}},
{ "id": 206163, "name": "Julien Binz", "address": {"address_locality":"Ammerschwihr","postal_code":"68770","street_address":"7 Rue des Cigognes"}},
{ "id": 2698, "name": "Jean Luc Tartarin", "address": {"address_locality":"Le Havre","postal_code":"76600","street_address":"73, Avenue Foch"}},
{ "id": 2714, "name": "Auberge des Templiers", "address": {"address_locality":"Boismorand","postal_code":"45290","street_address":"Les Bezards"}},
{ "id": 2828, "name": "Le Chiberta - Stéphane Laruelle - Guy Savoy", "address": {"address_locality":"Paris","postal_code":"75008","street_address":"3 Rue Arsène Houssaye"}},
{ "id": 6018, "name": "Le Vieux Logis", "address": {"address_locality":"Trémolat","postal_code":"24510","street_address":"Le Bourg"}},
{ "id": 291345, "name": "Le 114 Faubourg - Le Bristol Paris", "address": {"address_locality":"Paris","postal_code":"75008","street_address":"114 Rue du Faubourg Saint-Honoré"}},
{ "id": 58408, "name": "La Table du 11", "address": {"address_locality":"Versailles","postal_code":"78000","street_address":"11 Rue Saint-Honoré, Versailles, France"}},
{ "id": 276775, "name": "Garopapilles", "address": {"address_locality":"Bordeaux","postal_code":"33000","street_address":"62 Rue Abbé de l&#39;Épée"}},
{ "id": 209193, "name": "Ed.Em", "address": {"address_locality":"Chassagne-Montrachet","postal_code":"21190","street_address":"Impasse des Chenevottes"}},
{ "id": 63173, "name": "Fontevraud  Le Restaurant", "address": {"address_locality":"Fontevraud-l'Abbaye","postal_code":"49590","street_address":"38 Rue Saint-Jean de l'Habit"}},
{ "id": 5019, "name": "La Réserve - Hôtel NH Marseille Palm Beach", "address": {"address_locality":"Marseille","postal_code":"13007","street_address":"200 Corniche Kennedy"}},
{ "id": 51875, "name": "L'Auberge Tiegezh", "address": {"address_locality":"Guer","postal_code":"56380","street_address":"7, place de la Gare"}},
{ "id": 2998, "name": "Christopher Coutanceau", "address": {"address_locality":"La Rochelle","postal_code":"17000","street_address":"Place de la Concurrence"}},
{ "id": 53038, "name": "Le Gabriel - La Réserve Paris", "address": {"address_locality":"Paris","postal_code":"75008","street_address":"42, avenue Gabriel"}},
{ "id": 2889, "name": "La Marande", "address": {"address_locality":"Montbellet","postal_code":"71260","street_address":"Mirande"}},
{ "id": 75043, "name": "Prairial", "address": {"address_locality":"Lyon","postal_code":"69001","street_address":"11 Rue Chavanne"}},
{ "id": 250, "name": "Lasserre", "address": {"address_locality":"Paris","postal_code":"75008","street_address":"17, avenue Franklin Roosevelt"}},
{ "id": 294745, "name": "Le Fanal - Pascal Borrell", "address": {"address_locality":"Banyuls-sur-Mer","postal_code":"66650","street_address":"18 Avenue Pierre Fabre"}},
{ "id": 4961, "name": "Ar Men Du", "address": {"address_locality":"Névez","postal_code":"29920","street_address":"47, rue des Iles - Raguenez Plage"}},
{ "id": 26469, "name": "Restaurant Cyril Attrazic - Chez Camillou", "address": {"address_locality":"Aumont-Aubrac","postal_code":"48130","street_address":"10, route du Languedoc"}},
{ "id": 69375, "name": "Au Trou Gascon - Alain Dutournier", "address": {"address_locality":"Paris","postal_code":"75012","street_address":"40 Rue Taine"}},
{ "id": 5305, "name": "L'Auberge Basque", "address": {"address_locality":"Saint-Pée-sur-Nivelle","postal_code":"64310","street_address":"D 307 vieille route de saint jean de luz"}},
{ "id": 26201, "name": "Restaurant Auguste - Gaël Orieux", "address": {"address_locality":"Paris","postal_code":"75007","street_address":"54, rue de Bourgogne"}},
{ "id": 405, "name": "Maison Rostang", "address": {"address_locality":"Paris","postal_code":"75017","street_address":"20 Rue Rennequin"}},
{ "id": 77571, "name": "Le Domaine de Manville - La Table", "address": {"address_locality":"Les Baux-de-Provence","postal_code":"13520","street_address":"Les Baux-de-Provence"}},
{ "id": 78423, "name": "L’Atelier de Gaztelur", "address": {"address_locality":"Arcangues","postal_code":"64200","street_address":"Chemin de Gastelhur"}},
{ "id": 4905, "name": "Le Pressoir d'Argent - Le Grand Hotel - Gordon Ramsay", "address": {"address_locality":"Bordeaux","postal_code":"33000","street_address":"2-5, Place de la Comédie"}},
{ "id": 8897, "name": "Au Saint Benoît", "address": {"address_locality":"Paris","postal_code":"75006","street_address":"26, rue Saint-Benoît\t\t\t\r\n"}},
{ "id": 77613, "name": "Le Meurin", "address": {"address_locality":"Busnes","postal_code":"62350","street_address":"1098 Rue de Lillers"}},
{ "id": 5355, "name": "Auberge du Pont de Collonges - Paul Bocuse", "address": {"address_locality":"Or","postal_code":"69660","street_address":"40, Rue de la Plage"}},
{ "id": 3485, "name": "Manoir de la Boulaie - Laurent Saudeau", "address": {"address_locality":"Haute-Goulaine","postal_code":"44115","street_address":"33, rue de la Chapelle Saint Martin"}},
{ "id": 330375, "name": "Le Village", "address": {"address_locality":"Marly-le-Roi","postal_code":"78160","street_address":"3 Grande Rue"}},
{ "id": 3303, "name": "Le Relais Bernard Loiseau", "address": {"address_locality":"Saulieu","postal_code":"21210","street_address":"2, rue d'Argentine"}},
{ "id": 272053, "name": "Divellec", "address": {"address_locality":"Paris","postal_code":"75007","street_address":"18 Rue Fabert"}},
{ "id": 38155, "name": "Flaveur", "address": {"address_locality":"Nice","postal_code":"06000","street_address":"25, rue Gubernatis"}},
{ "id": 23454, "name": "Helen", "address": {"address_locality":"Paris","postal_code":"75008","street_address":"3, rue Berryer"}},
{ "id": 7130, "name": "Le Clos des Sens", "address": {"address_locality":"Annecy-le-Vieux","postal_code":"74940","street_address":"13 r Jean Mermoz"}},
{ "id": 35732, "name": "Hôtel - Restaurant Anne De Bretagne", "address": {"address_locality":"La Plaine-sur-Mer","postal_code":"44770","street_address":"163, boulevard de La Tara"}},
{ "id": 310829, "name": "Dominique Bouchet", "address": {"address_locality":"Paris","postal_code":"75008","street_address":"11 Rue Treilhard"}},
{ "id": 4697, "name": "Les Terrasses de Lyon", "address": {"address_locality":"Lyon","postal_code":"69005","street_address":"25, montée Saint-Barthélemy"}},
{ "id": 22878, "name": "Domaine de Clairefontaine", "address": {"address_locality":"Chonas-l'Amballan","postal_code":"38121","street_address":"Chemin des Fontanettes"}},
{ "id": 25765, "name": "Entre Terre et Mer", "address": {"address_locality":"Honfleur","postal_code":"14600","street_address":"12 place Hamelin"}},
{ "id": 59305, "name": "Le Cerfeuil", "address": {"address_locality":"Genève","postal_code":"1206","street_address":"Place des Eaux Vives 10"}},
{ "id": 2971, "name": "Maison Kieny", "address": {"address_locality":"Riedisheim","postal_code":"68400","street_address":"7, rue du Général de Gaulle"}},
{ "id": 310023, "name": "Il Carpaccio", "address": {"address_locality":"Milan","postal_code":"I-20124","street_address":"Via Lazzaro Palazzi, 19"}},
{ "id": 12900, "name": "Pierre Orsi", "address": {"address_locality":"Lyon","postal_code":"69006","street_address":"3, place Kléber\r\n"}},
{ "id": 8933, "name": "Les Clefs d'Argent", "address": {"address_locality":"Mont-de-Marsan","postal_code":"40000","street_address":"333, av Martyrs de la Résistance"}},
{ "id": 327881, "name": "La Matelote", "address": {"address_locality":"Boulogne-sur-Mer","postal_code":"62200","street_address":"80 Boulevard Sainte-Beuve"}},
{ "id": 26494, "name": "Restaurant La Barbacane", "address": {"address_locality":"Carcassonne","postal_code":"11000","street_address":"Place Auguste Pierre Pont"}},
{ "id": 10332, "name": "Le Refuge des Gourmets", "address": {"address_locality":"Machilly","postal_code":"74140","street_address":"90, route des Framboises"}},
{ "id": 16314, "name": "Les Fresques - Château des Vigiers", "address": {"address_locality":"Monestier","postal_code":"24240","street_address":"Le Vigier"}},
{ "id": 344379, "name": "Astrance", "address": {"address_locality":"Paris","postal_code":"75016","street_address":"4 Rue Beethoven"}},
{ "id": 18939, "name": "Le Bistro des Saveurs", "address": {"address_locality":"Obernai","postal_code":"67210","street_address":"35, rue de Sélestat"}},
{ "id": 269053, "name": "Ze Kitchen Galerie", "address": {"address_locality":"Paris","postal_code":"75006","street_address":"4 Rue des Grands Augustins"}},
{ "id": 5727, "name": "Mavrommatis", "address": {"address_locality":"Paris","postal_code":"75005","street_address":"42, rue Daubenton"}},
{ "id": 6710, "name": "Les Rosiers", "address": {"address_locality":"Biarritz","postal_code":"64200","street_address":"32, avenue Beau Soleil"}},
{ "id": 11116, "name": "Restaurant Le Lumière - Hôtel Scribe Paris", "address": {"address_locality":"Paris","postal_code":"75009","street_address":"1 Rue Scribe"}},
{ "id": 293007, "name": "Le Jardin d'Axel", "address": {"address_locality":"Marseille","postal_code":"13008","street_address":"Av. Elsa Triolet"}},
{ "id": 31008, "name": "Alcyone", "address": {"address_locality":"Marseille","postal_code":"13002","street_address":"Place Daviel"}},
{ "id": 25, "name": "Loiseau rive Gauche", "address": {"address_locality":"Paris","postal_code":"75007","street_address":"5, rue de Bourgogne"}},
{ "id": 555, "name": "Les Viviers - Le Bistrot", "address": {"address_locality":"Nice","postal_code":"06000","street_address":"22, rue Alphonse Karr"}},
{ "id": 339195, "name": "Gavroche & Cosette", "address": {"address_locality":"Los Cristianos","postal_code":"38650","street_address":"Calle Juan Reveron Sierra"}},
{ "id": 26660, "name": "La Vague d'Or", "address": {"address_locality":"Saint-Tropez","postal_code":"83990","street_address":"Plage de la Bouillabaisse"}},
{ "id": 317277, "name": "Quinsou", "address": {"address_locality":"Paris","postal_code":"75006","street_address":"33 Rue de l'Abbé Grégoire"}},
{ "id": 6482, "name": "Le Vieux Pont", "address": {"address_locality":"Belcastel","postal_code":"12390","street_address":"Le Bourg"}},
{ "id": 9759, "name": "Le Carrousel", "address": {"address_locality":"Maringues","postal_code":"63350","street_address":"14, rue du Pont de Morge"}},
{ "id": 276169, "name": "Ken Kawasaki", "address": {"address_locality":"Paris","postal_code":"75018","street_address":"15 Rue Caulaincourt"}},
{ "id": 66992, "name": "Le Stelsia - Le Jasmin", "address": {"address_locality":"Saint-Sylvestre-sur-Lot","postal_code":"47140","street_address":"Saint Sylvestre sur Lot"}},
{ "id": 2755, "name": "Auberge de Clochemerle - Romain Barthe", "address": {"address_locality":"Vaux-en-Beaujolais","postal_code":"69460","street_address":"Rue Gabriel Chevallier"}},
{ "id": 75252, "name": "L'Initiale Café", "address": {"address_locality":"Boulogne-Billancourt","postal_code":"92100","street_address":"66 Avenue Emile Zola"}},
{ "id": 44361, "name": "Auberge au Boeuf", "address": {"address_locality":"Sessenheim","postal_code":"67770","street_address":"1, rue de l'Eglise"}},
{ "id": 30315, "name": "Les Climats", "address": {"address_locality":"Paris","postal_code":"75007","street_address":"41, rue de Lille"}},
{ "id": 5020, "name": "La Fourchette du Printemps - Nicolas Mouton", "address": {"address_locality":"Paris","postal_code":"75017","street_address":"30, rue du Printemps"}},
{ "id": 6437, "name": "Atelier du Peintre", "address": {"address_locality":"Colmar","postal_code":"68000","street_address":"1, rue Schongauer"}},
{ "id": 17538, "name": "La Renaissance", "address": {"address_locality":"Merlieux-et-Fouquerolles","postal_code":"02000","street_address":"30, rue de Fouquerolles"}},
{ "id": 19419, "name": "L'Essentiel", "address": {"address_locality":"Attiches","postal_code":"59551","street_address":"19, rue de la Neuville (Petit Attiches)"}},
{ "id": 5649, "name": "La Grand'Vigne - Hôtel Les Sources de Caudalie", "address": {"address_locality":"Martillac","postal_code":"33650","street_address":"Chemin de Smith Haut Lafitte"}},
{ "id": 2579, "name": "L'Auberge de la Charme", "address": {"address_locality":"Prenois","postal_code":"21370","street_address":"12, rue de la Charme"}},
{ "id": 8817, "name": "Venta El Jinete", "address": {"address_locality":"Mijas Costa","postal_code":"29649","street_address":"Ctra. Cala Golf Km. 45"}},
{ "id": 26327, "name": "Elsa - Hôtel Monte-Carlo Beach", "address": {"address_locality":"Roquebrune-Cap-Martin","postal_code":"06190","street_address":"Avenue Princesse Grace"}},
{ "id": 785, "name": "Lucas Carton - Julien DUMAS", "address": {"address_locality":"Paris","postal_code":"75008","street_address":"9, place de la Madeleine"}},
{ "id": 287357, "name": "La Palme d'Or", "address": {"address_locality":"Cannes","postal_code":"06400","street_address":"73 Boulevard de la Croisette"}},
{ "id": 14529, "name": "La Chassagnette", "address": {"address_locality":"Arles","postal_code":"13200","street_address":"Route du Sambuc"}},
{ "id": 2591, "name": "La Table des Merville - Thierry Merville", "address": {"address_locality":"Castanet-Tolosan","postal_code":"31320","street_address":"3, Place Richard"}},
{ "id": 328009, "name": "La Promenade dei Templi", "address": {"address_locality":"Agrigento","postal_code":"92100","street_address":"Via Passeggiata Archeologica, 12"}},
{ "id": 2876, "name": "Le Relais de la Poste", "address": {"address_locality":"La Wantzenau","postal_code":"67610","street_address":"21, rue du Général de Gaulle"}},
{ "id": 351691, "name": "Restaurant Origine", "address": {"address_locality":"Rouen","postal_code":"76000","street_address":"26 Rampe Cauchoise"}},
{ "id": 9228, "name": "Le Baudelaire - Hôtel Le Burgundy Paris", "address": {"address_locality":"Paris","postal_code":"75001","street_address":"6/8, rue Duphot"}},
{ "id": 68859, "name": "Canter 1920", "address": {"address_locality":"Milan","postal_code":"I-20151","street_address":"Via Pegaso, 14"}},
{ "id": 3806, "name": "L'Assiette Champenoise", "address": {"address_locality":"Tinqueux","postal_code":"51430","street_address":"40, Av. Paul Vaillant-Couturier"}},
{ "id": 26460, "name": "Ivan Vautier", "address": {"address_locality":"Caen","postal_code":"14000","street_address":"3, avenue Henry-Chéron"}},
{ "id": 2975, "name": "La Table du Gourmet", "address": {"address_locality":"Riquewihr","postal_code":"68340","street_address":"5, rue de la première Armée"}},
{ "id": 78533, "name": "Le Quincangrogne", "address": {"address_locality":"Dampmart","postal_code":"77400","street_address":"7 Rue de l'Abreuvoir"}},
{ "id": 9350, "name": "Le Petit Nice Passedat - Gérald Passedat", "address": {"address_locality":"Marseille","postal_code":"13007","street_address":"Anse de Maldormé - Corniche J. F. Kennedy"}},
{ "id": 5609, "name": "La Chapelle Saint Martin", "address": {"address_locality":"Nieul","postal_code":"87510","street_address":"33, Saint Martin du Fault"}},
{ "id": 68308, "name": "Restaurant Thierry Drapeau", "address": {"address_locality":"Saint-Sulpice-le-Verdon","postal_code":"85260","street_address":"Logis de la Chabotterie"}},
{ "id": 64433, "name": "Oásis - Hotel Cascais Miragem", "address": {"address_locality":"Cascais","postal_code":"2754-536","street_address":"Avenida Marginal 8554"}},
{ "id": 5109, "name": "Le Magasin aux Vivres", "address": {"address_locality":"Metz","postal_code":"57000","street_address":"5, avenue de Ney"}},
{ "id": 8976, "name": "L'Abeille - Shangri-La Hotel, Paris", "address": {"address_locality":"Paris","postal_code":"75016","street_address":"10, avenue d'Iena"}},
{ "id": 324443, "name": "Maison Clovis", "address": {"address_locality":"Lyon","postal_code":"69006","street_address":"19 Boulevard des Brotteaux"}},
{ "id": 962, "name": "Auberge de la Tour", "address": {"address_locality":"Givet","postal_code":"08600","street_address":"6, quai des Fours"}},
{ "id": 3401, "name": "Le Bec Au Cauchois Restaurant Pierre Caillet", "address": {"address_locality":"Valmont","postal_code":"76540","street_address":"22 rue André Fiquet"}},
{ "id": 15599, "name": "Le Mas des Oliviers", "address": {"address_locality":"Saint-Herblain","postal_code":"44800","street_address":"Rue du Moulin de la Rousselière"}},
{ "id": 10889, "name": "Septime", "address": {"address_locality":"Paris","postal_code":"75011","street_address":"80, rue de Charonne"}},
{ "id": 301377, "name": "Le Chantecler - Hôtel Negresco", "address": {"address_locality":"Nice","postal_code":"06000","street_address":"37 Prom. des Anglais"}},
{ "id": 7135, "name": "Les Trois Rochers - La Villa Tri Men", "address": {"address_locality":"Combrit","postal_code":"29120","street_address":"16, rue du Phare (Sainte-Marine)"}},
{ "id": 16314, "name": "Les Fresques - Château des Vigiers", "address": {"address_locality":"Monestier","postal_code":"24240","street_address":"Le Vigier"}},
{ "id": 31795, "name": "L'Auberge du Vert Mont", "address": {"address_locality":"Boeschepe","postal_code":"59299","street_address":"1318, rue du Mont-Noir"}},
{ "id": 2310, "name": "Auberge du Cheval Blanc", "address": {"address_locality":"Lembach","postal_code":"67510","street_address":"4, rue de Wissembourg"}},
{ "id": 324473, "name": "Le Faventia", "address": {"address_locality":"Tourrettes","postal_code":"83440","street_address":"3100 Route de Bagnols-en-Forêt"}},
{ "id": 60859, "name": "Nakatani", "address": {"address_locality":"Paris","postal_code":"75007","street_address":"27 Rue Pierre Leroux, Paris, France"}},
{ "id": 3931, "name": "Restaurant William Frachot", "address": {"address_locality":"Dijon","postal_code":"21000","street_address":"5, rue Michelet"}},
{ "id": 2788, "name": "La Villa Madie - Dimitri Droisneau", "address": {"address_locality":"Cassis","postal_code":"13260","street_address":"Avenue de Revestel"}},
{ "id": 3592, "name": "Buerehiesel - Eric Westermann", "address": {"address_locality":"Strasbourg","postal_code":"67000","street_address":"4, parc de l'Orangerie"}},
{ "id": 62590, "name": "Le Pont de l'Ouysse", "address": {"address_locality":"Lacave","postal_code":"46200","street_address":"Le Pont De L'ouysse, 46200 Lacave, France"}},
{ "id": 7087, "name": "C'est Mon Plaisir", "address": {"address_locality":"Paris","postal_code":"75014","street_address":"53, rue Didot"}},
{ "id": 31701, "name": "Brasserie le Strasbourg", "address": {"address_locality":"Nancy","postal_code":"54000","street_address":"22, Place des Vosges"}},
{ "id": 3018, "name": "Domaine d'Auriac", "address": {"address_locality":"Carcassonne","postal_code":"11000","street_address":"route de Saint Hilaire"}},
{ "id": 74933, "name": "Le Clarence", "address": {"address_locality":"Paris","postal_code":"75008","street_address":"31 Avenue Franklin Delano Roosevelt"}},
{ "id": 4988, "name": "Le Jardin des Remparts", "address": {"address_locality":"Beaune","postal_code":"21200","street_address":"10 rue de l'Hôtel Dieu"}},
{ "id": 4904, "name": "Hostellerie de Plaisance", "address": {"address_locality":"Saint-Émilion","postal_code":"33330","street_address":"Place du Clocher"}},
{ "id": 8628, "name": "Le Park 45", "address": {"address_locality":"Cannes","postal_code":"06400","street_address":"45, La Croisette"}},
{ "id": 77897, "name": "Auberge St-Antoine", "address": {"address_locality":"Paris","postal_code":"75011","street_address":"243 Rue du Faubourg Saint-Antoine"}},
{ "id": 3131, "name": "Gordon Ramsay au Trianon", "address": {"address_locality":"Versailles","postal_code":"78000","street_address":"1, boulevard de la Reine"}},
{ "id": 19211, "name": "Le 1741", "address": {"address_locality":"Strasbourg","postal_code":"67000","street_address":"22, quai des Bateliers"}},
{ "id": 277471, "name": "Alain Llorca", "address": {"address_locality":"La Colle-sur-Loup","postal_code":"06480","street_address":"350 Route de Saint-Paul"}},
{ "id": 5632, "name": "La Licorne Royale", "address": {"address_locality":"Lyons-la-Forêt","postal_code":"27480","street_address":"27, place Benserade"}},
{ "id": 38024, "name": "La Nouvelle Auberge", "address": {"address_locality":"Wihr-au-Val","postal_code":"68230","street_address":"9, route Nationale"}},
{ "id": 46990, "name": "RACKHAM", "address": {"address_locality":"Roscoff","postal_code":"29680","street_address":"27 Place Lacaze Duthiers"}},
{ "id": 3507, "name": "Hostellerie de Levernois : Le Gastronomique", "address": {"address_locality":"Levernois","postal_code":"21200","street_address":"Rue du Golf"}},
{ "id": 7872, "name": "Le Pavillon des Boulevards - Denis Franc", "address": {"address_locality":"Bordeaux","postal_code":"33000","street_address":"120, rue de la Croix de Seguey"}},
{ "id": 313533, "name": "L'Orangerie", "address": {"address_locality":"Le Puy-Sainte-Réparade","postal_code":"13610","street_address":"Route de Saint-Canadet"}},
{ "id": 312497, "name": "La Cave d´Alexandre", "address": {"address_locality":"Marseille","postal_code":"13006","street_address":"93 Rue de Tilsit"}},
{ "id": 365973, "name": "121 Puro Sushi & Bar", "address": {"address_locality":"Naples","postal_code":"80121","street_address":"Via Vittorio Imbriani, 16 (angolo Via Carducci)"}},
{ "id": 205419, "name": "La Dame de Pic - Anne-Sophie PIC - Paris", "address": {"address_locality":"Paris","postal_code":"75001","street_address":"20 Rue du Louvre"}},
{ "id": 29364, "name": "Le Cinq - Four Seasons Hôtel George V", "address": {"address_locality":"Paris","postal_code":"75008","street_address":"31, avenue George V"}},
{ "id": 367107, "name": "Bollywood Masala", "address": {"address_locality":"Alcalá de Henares","postal_code":"28806","street_address":"Calle José María Pereda, 2"}},
{ "id": 6448, "name": "Les Bacchanales - Christophe Dufau", "address": {"address_locality":"Vence","postal_code":"06140","street_address":"247, avenue de Provence"}},
{ "id": 75533, "name": "La Tour des Vents", "address": {"address_locality":"Monbazillac","postal_code":"24240","street_address":"Le Moulin de Malfourat"}},
{ "id": 60777, "name": "1912", "address": {"address_locality":"Trouville-sur-Mer","postal_code":"14360","street_address":"Boulevard de la Cahotte"}},
{ "id": 8685, "name": "La Villa Archange", "address": {"address_locality":"Le Cannet","postal_code":"06110","street_address":"Rue de l'Ouest"}},
{ "id": 53046, "name": "Sur Mesure  par Thierry Marx - Mandarin Oriental, Paris", "address": {"address_locality":"Paris","postal_code":"75001","street_address":"251, rue Saint-Honoré"}},
{ "id": 4977, "name": "Le Saint-James - Nicolas Magie", "address": {"address_locality":"Bouliac","postal_code":"33270","street_address":"3, place Camille Hostein"}},
{ "id": 29364, "name": "Le Cinq - Four Seasons Hôtel George V", "address": {"address_locality":"Paris","postal_code":"75008","street_address":"31, avenue George V"}},
{ "id": 79244, "name": "Le Gambetta", "address": {"address_locality":"Aix-en-Provence","postal_code":"13100","street_address":"4 Cours Gambetta"}},
{ "id": 333717, "name": "Ô Trois Sept", "address": {"address_locality":"Lattes","postal_code":"34970","street_address":"7 Rue du Puech Radier"}},
{ "id": 6765, "name": "L'Auberge de la Diligence", "address": {"address_locality":"Loiré","postal_code":"49440","street_address":"4, rue de la Libération"}},
{ "id": 77626, "name": "Alliance", "address": {"address_locality":"Paris","postal_code":"75005","street_address":"5 Rue de Poissy"}},
{ "id": 38822, "name": "Paloma", "address": {"address_locality":"Mougins","postal_code":"06250","street_address":"47 Avenue du Moulin de la Croix"}},
{ "id": 6792, "name": "Le Panoramique du Domaine de la Corniche", "address": {"address_locality":"Rolleboise","postal_code":"78270","street_address":"5 Route de la Corniche"}},
{ "id": 269931, "name": "Les Jardins de L'Espadon - Ritz Paris", "address": {"address_locality":"Paris","postal_code":"75001","street_address":"15 Place Vendôme"}},
{ "id": 36448, "name": "Penati Al Baretto - Alberico Penati", "address": {"address_locality":"Paris","postal_code":"75008","street_address":"9-11 Rue Balzac"}},
{ "id": 324443, "name": "Maison Clovis", "address": {"address_locality":"Lyon","postal_code":"69006","street_address":"19 Boulevard des Brotteaux"}},
{ "id": 10896, "name": "Le Pavillon CG", "address": {"address_locality":"Reims","postal_code":"51100","street_address":"7, rue Noël"}},
{ "id": 5623, "name": "Le Corot - Hôtel Les Étangs de Corot", "address": {"address_locality":"Avray","postal_code":"92410","street_address":"55, rue de Versailles"}},
{ "id": 14851, "name": "Le Chateaubriand Chatenay Malabry", "address": {"address_locality":"Châtenay-Malabry","postal_code":"92290","street_address":"418, avenue de la Division Leclerc"}},
{ "id": 3304, "name": "Loiseau des Vignes", "address": {"address_locality":"Beaune","postal_code":"21200","street_address":"31 rue Maufoux"}},
{ "id": 291883, "name": "La Table de l'Alpaga", "address": {"address_locality":"Megève","postal_code":"74120","street_address":"66 Allée des Marmousets"}},
{ "id": 5935, "name": "Le Grand Cerf", "address": {"address_locality":"Villers-Allerand","postal_code":"51500","street_address":"50 route nationale (Montchenot)"}},
{ "id": 212971, "name": "L'Odas", "address": {"address_locality":"Rouen","postal_code":"76000","street_address":"Passage Maurice Lenfant"}},
{ "id": 32118, "name": "Le Musigny", "address": {"address_locality":"Valenciennes","postal_code":"59300","street_address":"90, avenue de Liège"}},
{ "id": 323145, "name": "Le Passe Temps", "address": {"address_locality":"Lyon","postal_code":"69006","street_address":"52 Rue Tronchet"}},
{ "id": 368057, "name": "Café Restaurant des 3 Rois", "address": {"address_locality":"Fribourg","postal_code":"1700","street_address":"Rue de la Samaritaine 2"}},
{ "id": 3552, "name": "Maison Lameloise", "address": {"address_locality":"Chagny","postal_code":"71150","street_address":"36, Place d'Armes"}},
{ "id": 337449, "name": "Comice", "address": {"address_locality":"Paris","postal_code":"75016","street_address":"31 Avenue de Versailles"}},
{ "id": 284489, "name": "L'Archeste", "address": {"address_locality":"Paris","postal_code":"75116","street_address":"79 Rue de la Tour"}},
{ "id": 387, "name": "Le Mascaret", "address": {"address_locality":"Blainville-sur-Mer","postal_code":"50560","street_address":"1 Rue de Bas"}},
{ "id": 5445, "name": "Hôtel Restaurant La Pyramide", "address": {"address_locality":"Vienne","postal_code":"38200","street_address":"14, Bd Fernand Point"}},
{ "id": 317587, "name": "Pertinence", "address": {"address_locality":"Paris","postal_code":"75007","street_address":"29 Rue de l&#39;Exposition"}},
{ "id": 3157, "name": "Restaurant Gill \"Relais & Châteaux\"", "address": {"address_locality":"Rouen","postal_code":"76000","street_address":"8-9, Quai de la Bourse"}},
{ "id": 27598, "name": "Hôtel Restaurant Les Bories", "address": {"address_locality":"Gordes","postal_code":"84220","street_address":"Route de l'Abbaye de Sénanque"}},
{ "id": 3485, "name": "Manoir de la Boulaie - Laurent Saudeau", "address": {"address_locality":"Haute-Goulaine","postal_code":"44115","street_address":"33, rue de la Chapelle Saint Martin"}},
{ "id": 8977, "name": "Shang Palace - Shangri-La Hotel, Paris", "address": {"address_locality":"Paris","postal_code":"75016","street_address":"10, avenue d'Iena"}},
{ "id": 214579, "name": "L'Arcane", "address": {"address_locality":"Paris","postal_code":"75018","street_address":"39 Rue Lamarck"}},
{ "id": 15264, "name": "Hôtel Restaurant Yoann CONTE, bord du lac", "address": {"address_locality":"Veyrier-du-Lac","postal_code":"74290","street_address":"13 Vieille-Route-des-Pensières"}},
{ "id": 4294, "name": "La Maison dans le Parc", "address": {"address_locality":"Nancy","postal_code":"54000","street_address":"3 rue Ste Catherine"}},
{ "id": 1310, "name": "Le Phebus - Xavier Mathieu", "address": {"address_locality":"Joucas","postal_code":"84220","street_address":"Route de Murs"}},
{ "id": 204609, "name": "Le Castellaras", "address": {"address_locality":"Fayence","postal_code":"83440","street_address":"461 Chemin de Peymeyan"}},
{ "id": 28453, "name": "Le 1217", "address": {"address_locality":"Bagnols","postal_code":"69620","street_address":"Le Bourg"}},
{ "id": 344985, "name": "Les Tontons Burgers (Saint-Georges)", "address": {"address_locality":"Lyon","postal_code":"69005","street_address":"86 Rue Saint-Georges"}}]
